HST                     
1 20580U 90037B   26068.15977042  .00009063  00000+0  30023-3 0  9999
2 20580  28.4717  43.6133 0001837 120.9992 239.0785 15.29473555773239
STARLINK-34849          
1 66005U 25232A   26068.81888146  .00022136  00000+0  75785-3 0  9995
2 66005  53.1590 103.4335 0001522  81.5244 278.5930 15.30175686 23444
